[{"OBJECT_NAME":"STARLINK-3571","OBJECT_ID":"2022-022F","EPOCH":"2026-03-09T05:44:17.598048","MEAN_MOTION":15.08831173,"ECCENTRICITY":0.00015413,"INCLINATION":53.2205,"RA_OF_ASC_NODE":21.1593,"ARG_OF_PERICENTER":109.3943,"MEAN_ANOMALY":250.7216,"EPHEMERIS_TYPE":0,"CLASSIFICATION_TYPE":"U","NORAD_CAT_ID":51857,"ELEMENT_SET_NO":999,"REV_AT_EPOCH":22295,"BSTAR":-2.8189455e-5,"MEAN_MOTION_DOT":-7.36e-6,"MEAN_MOTION_DDOT":0},{"OBJECT_NAME":"NANOFF A","OBJECT_ID":"2023-185T","EPOCH":"2026-03-09T23:34:34.415328","MEAN_MOTION":15.11542977,"ECCENTRICITY":0.00086783,"INCLINATION":97.5359,"RA_OF_ASC_NODE":137.8345,"ARG_OF_PERICENTER":292.8968,"MEAN_ANOMALY":67.1346,"EPHEMERIS_TYPE":0,"CLASSIFICATION_TYPE":"U","NORAD_CAT_ID":58810,"ELEMENT_SET_NO":999,"REV_AT_EPOCH":11805,"BSTAR":0.00027314844,"MEAN_MOTION_DOT":4.57e-5,"MEAN_MOTION_DDOT":0}]
